TDRS 3                  
1 19548U 88091B   26168.14051247 -.00000307  00000+0  00000+0 0  9999
2 19548  12.6017 341.0048 0038412 356.1134 290.0450  1.00273119125380
FLTSATCOM 8 (USA 46)    
1 20253U 89077A   26167.60807241 -.00000374  00000+0  00000+0 0  9996
2 20253  12.4218 351.1683 0004427  55.3061 202.9863  1.00277790260557
SKYNET 4C               
1 20776U 90079A   26162.20198485  .00000132  00000+0  00000+0 0  9995
2 20776  13.3424 349.8525 0002400  96.2313 279.5534  1.00274127130831
TDRS 5                  
1 21639U 91054B   26168.23796690  .00000074  00000+0  00000+0 0  9994
2 21639  14.0712 353.7806 0006398 275.3025 274.3964  1.00274249127712
TDRS 6                  
1 22314U 93003B   26168.12869834 -.00000305  00000+0  00000+0 0  9998
2 22314  14.1828 357.0599 0008005 178.0125  90.8403  1.00271410122402
UFO 2 (USA 95)          
1 22787U 93056A   26167.95715442  .00000116  00000+0  00000+0 0  9994
2 22787  11.8946   3.5568 0005780   8.4779 266.4451  1.00276623118543
USA 99 (MILSTAR-1 1)    
1 22988U 94009A   26166.83167010 -.00000159  00000+0  00000+0 0  9992
2 22988  17.6250  27.7207 0001078 220.1657 328.1792  0.98722938 32933
UFO 4 (USA 108)         
1 23467U 95003A   26167.79026802 -.00000031  00000+0  00000+0 0  9998
2 23467   9.7010  13.2322 0003085  67.6555 280.8351  1.00272516114944
TDRS 7                  
1 23613U 95035B   26167.72745610 -.00000244  00000+0  00000+0 0  9990
2 23613  13.3773 348.1940 0011038  78.7331 188.8018  1.00264591113245
USA 115 (MILSTAR-1 2)   
1 23712U 95060A   26168.28150125 -.00000202  00000+0  00000+0 0  9995
2 23712  14.0730   3.7500 0001490 140.3049 128.6348  1.00364399 32880
INMARSAT 3-F1           
1 23839U 96020A   26168.41883830 -.00000127  00000+0  00000+0 0  9999
2 23839  10.6014  46.6330 0003773  51.9072 222.5057  0.99978609110254
INMARSAT 3-F2           
1 24307U 96053A   26167.58616080 -.00000263  00000+0  00000+0 0  9995
2 24307   9.8557  53.9435 0006711  29.5098 182.3773  1.00003261108912
INMARSAT 3-F3           
1 24674U 96070A   26167.76466995  .00000127  00000+0  00000+0 0  9997
2 24674  10.3173  49.6581 0003336  26.5876 147.0230  0.99982224107901
AMC-3                   
1 24936U 97050A   26168.47683766  .00000058  00000+0  00000+0 0  9996
2 24936   8.1658  63.9825 0004121  27.3237 214.4691  0.99061861 52430
USA 134                 
1 25019U 97065A   26168.28210361 -.00000073  00000+0  00000+0 0  9999
2 25019  12.7846  21.7240 0003372 336.7219 256.3617  1.00268927 32953
INMARSAT 3-F5           
1 25153U 98006B   26168.12897061 -.00000300  00000+0  00000+0 0  9998
2 25153   9.6937  53.2613 0004460  28.8350 175.6920  1.00267650103890
ABS-6                   
1 25924U 99053A   26168.22058715 -.00000123  00000+0  00000+0 0  9996
2 25924   0.0218 293.8741 0003602 155.7256  54.3123  1.00271034 97845
UFO 10 (USA 146)        
1 25967U 99063A   26167.39515556 -.00000196  00000+0  00000+0 0  9992
2 25967   9.8487  27.2160 0001841  41.1634 315.6136  1.00271386 97333
ASIASTAR                
1 26107U 00016A   26167.63432156 -.00000341  00000+0  00000+0 0  9992
2 26107   9.1288  58.1607 0004450  27.6639 152.4304  1.00268952 95915
USA 149 (DSP 20)        
1 26356U 00024A   26168.21672404  .00000084  00000+0  00000+0 0  9997
2 26356  13.1708  11.8543 0001974 309.6259 216.6291  1.00274733 32910
TDRS 8                  
1 26388U 00034A   26167.63033487 -.00000202  00000+0  00000+0 0  9993
2 26388  12.6827  31.3273 0004578  18.8079 166.2948  1.00267287 95172
NSS-11                  
1 26554U 00059A   26167.79096135  .00000021  00000+0  00000+0 0  9999
2 26554   2.1262  81.3932 0002785 352.1794 292.2208  1.00271091 41287
USA 153                 
1 26575U 00065A   26167.66827407 -.00000334  00000+0  00000+0 0  9997
2 26575  11.6238  35.4269 0002989  47.0741 197.5048  1.00269648 32924
AMC-6                   
1 26580U 00067A   26168.46882883  .00000083  00000+0  00000+0 0  9993
2 26580   0.1538  83.1105 0003484  15.4364 200.9328  1.00273003 93899
USA 157 (MILSTAR-2 2)   
1 26715U 01009A   26168.44061412  .00000099  00000+0  00000+0 0  9992
2 26715  11.5433  19.7655 0039279 177.6303  76.8668  1.00274845 32940
INTELSAT 902 (IS-902)   
1 26900U 01039A   26167.53238604 -.00000289  00000+0  00000+0 0  9991
2 26900   6.1158  71.7912 0004343  10.1686 324.3973  1.00272336 90681
USA 164 (MILSTAR-2 3)   
1 27168U 02001A   26166.77822725  .00000092  00000+0  00000+0 0  9997
2 27168  11.1780  21.9176 0098985   8.3417 172.9956  1.00276973 32944
INTELSAT 904 (IS-904)   
1 27380U 02007A   26168.08681490 -.00000233  00000+0  00000+0 0  9995
2 27380   6.9204  69.1859 0006491   5.2636 190.6543  1.00270537 51765
DIRECTV 5 (TEMPO 1)     
1 27426U 02023A   26167.62249932 -.00000062  00000+0  00000+0 0  9994
2 27426   4.8769  75.3171 0003286  24.4864 279.0813  1.00271599 88110
INTELSAT 905 (IS-905)   
1 27438U 02027A   26168.46735744  .00000086  00000+0  00000+0 0  9990
2 27438   6.7549  69.7976 0003822  21.0131 205.9384  1.00271523 51361
GALAXY 3C (G-3C)        
1 27445U 02030A   26168.32405734 -.00000159  00000+0  00000+0 0  9992
2 27445   3.7327  77.9765 0001583  31.2786 178.1332  1.00270983 46499
